NORAD_CAT_ID,OBJECT_NAME,OBJECT_TYPE,EPOCH,MEAN_MOTION,ECCENTRICITY,INCLINATION,RA_OF_ASC_NODE,ARG_OF_PERICENTER,MEAN_ANOMALY,BSTAR,MEAN_MOTION_DOT,MEAN_MOTION_DDOT,TLE_LINE0,TLE_LINE1,TLE_LINE2,SEMIMAJOR_AXIS,PERIOD,APOGEE,PERIGEE,DECAYED
53008.0,STARLINK-4275,PAYLOAD,2022-11-02 18:00:02,15.08828233,0.0001523,53.2164,184.0994,69.7657,22.7741,0.00035639,5.387e-05,0.0,0 STARLINK-4275,1 53008U 22076Y   22306.75002315  .00005387  00000-0  35639-3 0  9991,2 53008  53.2164 184.0994 0001523  69.7657  22.7741 15.08828233 18692,6917.916,95.438,540.835,538.7280000000002,0.0
53008.0,STARLINK-4275,PAYLOAD,2022-11-03 09:29:23,15.08842011,0.0001634,53.2179,181.2009,67.2461,292.8703,0.00011165,1.489e-05,0.0,0 STARLINK-4275,1 53008U 22076Y   22307.39541554  .00001489  00000-0  11165-3 0  9992,2 53008  53.2179 181.2009 0001634  67.2461 292.8703 15.08842011 18321,6917.874,95.437,540.87,538.609,0.0
53008.0,STARLINK-4275,PAYLOAD,2022-11-03 15:50:56,15.08848159,0.0001665999999999,53.2177,180.011,69.41,290.707,5.743100000000001e-05,6.26e-06,0.0,0 STARLINK-4275,1 53008U 22076Y   22307.66037217  .00000626  00000-0  57431-4 0  9997,2 53008  53.2177 180.0110 0001666  69.4100 290.7070 15.08848159 18837,6917.855,95.437,540.873,538.568,0.0
53008.0,STARLINK-4275,PAYLOAD,2022-11-04 01:23:13,15.08857851,0.0001649,53.217,178.2261,72.5877,287.5295,0.00015345,2.156e-05,0.0,0 STARLINK-4275,1 53008U 22076Y   22308.05780025  .00002156  00000-0  15345-3 0  9990,2 53008  53.2170 178.2261 0001649  72.5877 287.5295 15.08857851 18891,6917.826,95.436,540.832,538.55,0.0
53008.0,STARLINK-4275,PAYLOAD,2022-11-04 15:41:42,15.08848742,0.000156,53.2158,175.5503,67.8749,292.2408,0.00031855,4.787e-05,0.0,0 STARLINK-4275,1 53008U 22076Y   22308.65396722  .00004787  00000-0  31855-3 0  9999,2 53008  53.2158 175.5503 0001560  67.8749 292.2408 15.08848742 18981,6917.854,95.437,540.798,538.639,0.0
53008.0,STARLINK-4275,PAYLOAD,2022-11-05 01:14:01,15.08839761,0.0001485,53.2155,173.7672,59.6732,300.4407,-1.1691e-05,-4.74e-06,0.0,0 STARLINK-4275,1 53008U 22076Y   22309.05141017 -.00000474  00000-0 -11691-4 0  9997,2 53008  53.2155 173.7672 0001485  59.6732 300.4407 15.08839761 19042,6917.880999999999,95.438,540.773,538.719,0.0
53008.0,STARLINK-4275,PAYLOAD,2022-11-05 07:35:34,15.0883948,0.0001496,53.2155,172.5778,59.2024,300.9115,-3.2706e-05,-8.08e-06,0.0,0 STARLINK-4275,1 53008U 22076Y   22309.31636954 -.00000808  00000-0 -32706-4 0  9996,2 53008  53.2155 172.5778 0001496  59.2024 300.9115 15.08839480 18619,6917.882,95.438,540.7819999999998,538.712,0.0
53008.0,STARLINK-4275,PAYLOAD,2022-11-05 15:32:31,15.08820894,0.000129,53.2155,171.0882,59.7735,300.3384,-0.00022075,-3.798e-05,0.0,0 STARLINK-4275,1 53008U 22076Y   22309.64759151 -.00003798  00000-0 -22075-3 0  9995,2 53008  53.2155 171.0882 0001290  59.7735 300.3384 15.08820894 19134,6917.939,95.439,540.696,538.911,0.0
53008.0,STARLINK-4275,PAYLOAD,2022-11-06 07:26:23,15.08821904,0.0001101,53.2197,168.1158,63.0638,297.0467,-0.00011555,-2.125e-05,0.0,0 STARLINK-4275,1 53008U 22076Y   22310.30999209 -.00002125  00000-0 -11555-3 0  9994,2 53008  53.2197 168.1158 0001101  63.0638 297.0467 15.08821904 19232,6917.936,95.439,540.562,539.039,0.0
53008.0,STARLINK-4275,PAYLOAD,2022-11-06 21:44:51,15.08822636,0.0001474,53.2162,165.44099999999997,61.3872,298.7268,9.0781e-06,-1.44e-06,0.0,0 STARLINK-4275,1 53008U 22076Y   22310.90615481 -.00000144  00000-0  90781-5 0  9995,2 53008  53.2162 165.4410 0001474  61.3872 298.7268 15.08822636 19329,6917.933000000001,95.439,540.818,538.779,0.0
53008.0,STARLINK-4275,PAYLOAD,2022-11-07 13:38:42,15.08847532,0.0001648,53.2169,162.467,62.9805,297.1355,-0.00015987,-2.832e-05,0.0,0 STARLINK-4275,1 53008U 22076Y   22311.56854840 -.00002832  00000-0 -15987-3 0  9992,2 53008  53.2169 162.4670 0001648  62.9805 297.1355 15.08847532 19420,6917.857,95.437,540.862,538.582,0.0
53008.0,STARLINK-4275,PAYLOAD,2022-11-08 00:46:25,15.08830667,0.0001898,53.2157,160.3852,69.8775,290.2421,0.00024283,3.578e-05,0.0,0 STARLINK-4275,1 53008U 22076Y   22312.03223527  .00003578  00000-0  24283-3 0  9992,2 53008  53.2157 160.3852 0001898  69.8775 290.2421 15.08830667 19491,6917.909000000002,95.438,541.087,538.461,0.0
53008.0,STARLINK-4275,PAYLOAD,2022-11-08 07:07:56,15.08843342,0.0001544,53.2165,159.1963,63.6309,296.4842,0.00029955,4.483e-05,0.0,0 STARLINK-4275,1 53008U 22076Y   22312.29718499  .00004483  00000-0  29955-3 0  9994,2 53008  53.2165 159.1963 0001544  63.6309 296.4842 15.08843342 19536,6917.87,95.437,540.803,538.6669999999998,0.0
53008.0,STARLINK-4275,PAYLOAD,2022-11-08 19:51:01,15.08852122,0.0001583,53.2159,156.8172,65.4121,294.7036,0.0002843,4.241e-05,0.0,0 STARLINK-4275,1 53008U 22076Y   22312.82709993  .00004241  00000-0  28430-3 0  9991,2 53008  53.2159 156.8172 0001583  65.4121 294.7036 15.08852122 19149,6917.843000000003,95.437,540.803,538.613,0.0
53008.0,STARLINK-4275,PAYLOAD,2022-11-09 13:20:16,15.08824046,0.0002234,53.2147,153.5461,66.5274,293.5953,0.00046089,7.051e-05,0.0,0 STARLINK-4275,1 53008U 22076Y   22313.55574940  .00007051  00000-0  46089-3 0  9996,2 53008  53.2147 153.5461 0002234  66.5274 293.5953 15.08824046 19257,6917.929,95.439,541.34,538.249,0.0
53008.0,STARLINK-4275,PAYLOAD,2022-11-09 19:41:49,15.08847507,0.0001575999999999,53.2164,152.3565,64.8499,295.2656,1.5753e-05,-3.7e-07,0.0,0 STARLINK-4275,1 53008U 22076Y   22313.82070611 -.00000037  00000-0  15753-4 0  9995,2 53008  53.2164 152.3565 0001576  64.8499 295.2656 15.08847507 19768,6917.857,95.437,540.813,538.632,0.0
53008.0,STARLINK-4275,PAYLOAD,2022-11-10 13:11:02,15.088544400000002,0.0001491,53.2171,149.0857,63.3762,296.7383,-1.9405000000000003e-06,-3.19e-06,0.0,0 STARLINK-4275,1 53008U 22076Y   22314.54933576 -.00000319  00000-0 -19405-5 0  9996,2 53008  53.2171 149.0857 0001491  63.3762 296.7383 15.08854440 19404,6917.8359999999975,95.437,540.7330000000002,538.67,0.0
53008.0,STARLINK-4275,PAYLOAD,2022-11-10 19:32:35,15.08838805,0.0001436,53.2188,147.8969,61.563,298.5507,0.00010107,1.321e-05,0.0,0 STARLINK-4275,1 53008U 22076Y   22314.81429772  .00001321  00000-0  10107-3 0  9994,2 53008  53.2188 147.8969 0001436  61.5630 298.5507 15.08838805 19444,6917.884,95.438,540.742,538.756,0.0
53008.0,STARLINK-4275,PAYLOAD,2022-11-11 13:01:50,15.08833789,0.0001449,53.2171,144.6252,62.583,297.5309,1.4165e-05,-6.3e-07,0.0,0 STARLINK-4275,1 53008U 22076Y   22315.54294507 -.00000063  00000-0  14165-4 0  9993,2 53008  53.2171 144.6252 0001449  62.5830 297.5309 15.08833789 19550,6917.899,95.438,540.7669999999998,538.762,0.0
53008.0,STARLINK-4275,PAYLOAD,2022-11-11 19:23:22,15.08838739,0.0001441999999999,53.2172,143.4365,58.0597,302.0535,4.2793e-05,3.93e-06,0.0,0 STARLINK-4275,1 53008U 22076Y   22315.80790145  .00000393  00000-0  42793-4 0  9994,2 53008  53.2172 143.4365 0001442  58.0597 302.0535 15.08838739 20067,6917.884,95.438,540.747,538.752,0.0
53008.0,STARLINK-4275,PAYLOAD,2022-11-12 11:17:13,15.08858734,0.0001344,53.2172,140.4624,56.3748,303.7373,-0.00015782,-2.8000000000000013e-05,0.0,0 STARLINK-4275,1 53008U 22076Y   22316.47029608 -.00002800  00000-0 -15782-3 0  9991,2 53008  53.2172 140.4624 0001344  56.3748 303.7373 15.08858734 20168,6917.823,95.436,540.618,538.758,0.0
53008.0,STARLINK-4275,PAYLOAD,2022-11-12 12:52:36,15.08851858,0.0001334,53.2172,140.1647,55.2153,304.8965,-0.00010339,-1.934e-05,0.0,0 STARLINK-4275,1 53008U 22076Y   22316.53653760 -.00001934  00000-0 -10339-3 0  9990,2 53008  53.2172 140.1647 0001334  55.2153 304.8965 15.08851858 19704,6917.844,95.437,540.632,538.786,0.0
53008.0,STARLINK-4275,PAYLOAD,2022-11-12 17:38:47,15.08805978,0.0001717,53.2172,139.2729,64.1698,295.9471,0.00045738,6.992e-05,0.0,0 STARLINK-4275,1 53008U 22076Y   22316.73526891  .00006992  00000-0  45738-3 0  9994,2 53008  53.2172 139.2729 0001717  64.1698 295.9471 15.08805978 20203,6917.984,95.44,541.0369999999998,538.6619999999998,0.0
53008.0,STARLINK-4275,PAYLOAD,2022-11-12 19:14:09,15.0884393,0.0001474,53.2171,138.9757,55.1121,305.001,-8.6766e-05,-1.669e-05,0.0,0 STARLINK-4275,1 53008U 22076Y   22316.80150138 -.00001669  00000-0 -86766-4 0  9994,2 53008  53.2171 138.9757 0001474  55.1121 305.0010 15.08843930 19749,6917.868,95.437,540.753,538.714,0.0
53008.0,STARLINK-4275,PAYLOAD,2022-11-13 04:46:29,15.08831056,0.0001452,53.2171,137.1914,56.8915,303.2216,4.0144e-05,3.51e-06,0.0,0 STARLINK-4275,1 53008U 22076Y   22317.19894733  .00000351  00000-0  40144-4 0  9998,2 53008  53.2171 137.1914 0001452  56.8915 303.2216 15.08831056 20274,6917.908,95.438,540.7769999999998,538.768,0.0
53008.0,STARLINK-4275,PAYLOAD,2022-11-13 19:04:56,15.08839315,0.000147,53.2177,134.5145,62.9616,297.1526,3.3562e-05,2.46e-06,0.0,0 STARLINK-4275,1 53008U 22076Y   22317.79510403  .00000246  00000-0  33562-4 0  9992,2 53008  53.2177 134.5145 0001470  62.9616 297.1526 15.08839315 20364,6917.882,95.438,540.764,538.731,0.0
53008.0,STARLINK-4275,PAYLOAD,2022-11-14 10:58:47,15.08867151,0.0001745,53.2174,131.5414,59.1029,301.0134,-0.00029809,-5.033e-05,0.0,0 STARLINK-4275,1 53008U 22076Y   22318.45749270 -.00005033  00000-0 -29809-3 0  9991,2 53008  53.2174 131.5414 0001745  59.1029 301.0134 15.08867151 19994,6917.797,95.436,540.87,538.455,0.0
53008.0,STARLINK-4275,PAYLOAD,2022-11-14 17:20:20,15.0884152,0.0001569,53.2175,130.3521,61.8751,298.2399,0.00014459,2.014e-05,0.0,0 STARLINK-4275,1 53008U 22076Y   22318.72245941  .00002014  00000-0  14459-3 0  9996,2 53008  53.2175 130.3521 0001569  61.8751 298.2399 15.08841520 20036,6917.876,95.437,540.826,538.655,0.0
53008.0,STARLINK-4275,PAYLOAD,2022-11-14 20:31:06,15.08841391,0.0001579,53.2175,129.7574,61.0865,299.0285,0.00013858,1.918e-05,0.0,0 STARLINK-4275,1 53008U 22076Y   22318.85493961  .00001918  00000-0  13858-3 0  9991,2 53008  53.2175 129.7574 0001579  61.0865 299.0285 15.08841391 20528,6917.876,95.437,540.8330000000002,538.649,0.0
